NORAD_CAT_ID,OBJECT_NAME,OBJECT_TYPE,EPOCH,MEAN_MOTION,ECCENTRICITY,INCLINATION,RA_OF_ASC_NODE,ARG_OF_PERICENTER,MEAN_ANOMALY,BSTAR,MEAN_MOTION_DOT,MEAN_MOTION_DDOT,TLE_LINE0,TLE_LINE1,TLE_LINE2,SEMIMAJOR_AXIS,PERIOD,APOGEE,PERIGEE,DECAYED
55311.0,STARLINK-5312,PAYLOAD,2023-02-04 10:00:00,15.75451485,0.0003764,70.0001,24.2871,257.2944,28.0076,-0.0060112,-0.00830403,0.0,0 STARLINK-5312,1 55311U 23010AU  23035.41667824 -.00830403  00000-0 -60112-2 0  9994,2 55311  70.0001  24.2871 0003764 257.2944  28.0076 15.75451485  3003,6721.484,91.402,345.879,340.819,0.0
55311.0,STARLINK-5312,PAYLOAD,2023-02-04 14:00:01,15.75161405,0.0003493,69.9993,23.8141,265.1882,245.0014,-0.0061999,-0.00844148,0.0,0 STARLINK-5312,1 55311U 23010AU  23035.58334491 -.00844148  00000-0 -61999-2 0  9998,2 55311  69.9993  23.8141 0003493 265.1882 245.0014 15.75161405  1307,6722.309,91.419,346.522,341.826,0.0
55311.0,STARLINK-5312,PAYLOAD,2023-02-04 22:00:00,15.74555833,0.0003517,70.0002,22.8707,261.7915,337.6448,-0.0062736,-0.00833012,0.0,0 STARLINK-5312,1 55311U 23010AU  23035.91667824 -.00833012  00000-0 -62736-2 0  9992,2 55311  70.0002  22.8707 0003517 261.7915 337.6448 15.74555833  1304,6724.032,91.454,348.262,343.533,0.0
55311.0,STARLINK-5312,PAYLOAD,2023-02-05 06:00:00,15.73961126,0.0003876,70.0,21.927,254.6042,73.3574,-0.0064752,-0.00837575,0.0,0 STARLINK-5312,1 55311U 23010AU  23036.25001157 -.00837575  00000-0 -64752-2 0  9999,2 55311  70.0000  21.9270 0003876 254.6042  73.3574 15.73961126  3139,6725.726,91.489,350.198,344.984,0.0
55311.0,STARLINK-5312,PAYLOAD,2023-02-05 14:00:01,15.73368529,0.0003815,69.9959,20.9762,267.2673,148.6055,-0.0067961,-0.00855061,0.0,0 STARLINK-5312,1 55311U 23010AU  23036.58335648 -.00855061  00000-0 -67961-2 0  9995,2 55311  69.9959  20.9762 0003815 267.2673 148.6055 15.73368529  1302,6727.415,91.523,351.846,346.713,0.0
55311.0,STARLINK-5312,PAYLOAD,2023-02-05 22:00:00,15.72777992,0.0003541,69.9964,20.035,263.4028,239.4886,-0.0068674,-0.00843448,0.0,0 STARLINK-5312,1 55311U 23010AU  23036.91667824 -.00843448  00000-0 -68674-2 0  9994,2 55311  69.9964  20.0350 0003541 263.4028 239.4886 15.72777992  1308,6729.099,91.558,353.346,348.581,0.0
55311.0,STARLINK-5312,PAYLOAD,2023-02-06 14:00:01,15.71587252,0.0003658,69.9964,18.1545,268.656,46.2747,-0.0075319,-0.00875921,0.0,0 STARLINK-5312,1 55311U 23010AU  23037.58334491 -.00875921  00000-0 -75319-2 0  9994,2 55311  69.9964  18.1545 0003658 268.6560  46.2747 15.71587252  3342,6732.497,91.627,356.825,351.899,0.0
55311.0,STARLINK-5312,PAYLOAD,2023-02-06 22:00:00,15.70985519,0.0003258,69.9967,17.2158,266.0067,133.8554,-0.0074252,-0.00844839,0.0,0 STARLINK-5312,1 55311U 23010AU  23037.91667824 -.00844839  00000-0 -74252-2 0  9999,2 55311  69.9967  17.2158 0003258 266.0067 133.8554 15.70985519  1305,6734.216,91.662,358.275,353.887,0.0
55311.0,STARLINK-5312,PAYLOAD,2023-02-07 08:00:01,15.70007017,0.0003373,69.9979,16.0429,277.2105,317.8647,-0.001167,-0.0013872,0.0,0 STARLINK-5312,1 55311U 23010AU  23038.33334491 -.00138720  00000-0 -11670-2 0  9997,2 55311  69.9979  16.0429 0003373 277.2105 317.8647 15.70007017  3465,6737.014,91.719,361.151,356.607,0.0
55311.0,STARLINK-5312,PAYLOAD,2023-02-07 14:00:01,15.69935416,0.0003333,69.9984,15.3396,272.9466,294.6646,-0.00015328,-0.00018611,0.0,0 STARLINK-5312,1 55311U 23010AU  23038.58334491 -.00018611  00000-0 -15328-3 0  9995,2 55311  69.9984  15.3396 0003333 272.9466 294.6646 15.69935416  1307,6737.219,91.724,361.329,356.838,0.0
55311.0,STARLINK-5312,PAYLOAD,2023-02-07 22:00:00,15.69948667,0.0003369,70.0001,14.4023,269.1654,21.7839,-0.0001877,-0.00022744,0.0,0 STARLINK-5312,1 55311U 23010AU  23038.91667824 -.00022744  00000-0 -18770-3 0  9997,2 55311  70.0001  14.4023 0003369 269.1654  21.7839 15.69948667  1308,6737.181,91.723,361.316,356.776,0.0
55311.0,STARLINK-5312,PAYLOAD,2023-02-08 00:00:00,15.69972777,0.0003382,70.0005,14.1679,271.3076,130.4741,-0.00068584,-0.00082045,0.0,0 STARLINK-5312,1 55311U 23010AU  23039.00001157 -.00082045  00000-0 -68584-3 0  9997,2 55311  70.0005  14.1679 0003382 271.3076 130.4741 15.69972777  3563,6737.112,91.721,361.255,356.698,0.0
55311.0,STARLINK-5312,PAYLOAD,2023-02-08 14:00:01,15.69959715,0.0003374,70.0004,12.5278,278.9629,178.6668,-0.00076582,-0.00091436,0.0,0 STARLINK-5312,1 55311U 23010AU  23039.58334491 -.00091436  00000-0 -76582-3 0  9991,2 55311  70.0004  12.5278 0003374 278.9629 178.6668 15.69959715  1306,6737.149,91.722,361.287,356.741,0.0
55311.0,STARLINK-5312,PAYLOAD,2023-02-08 16:00:00,15.69909398,0.0003352,70.0006,12.2935,276.7954,291.6852,-1.8445e-06,-4.34e-06,0.0,0 STARLINK-5312,1 55311U 23010AU  23039.66667824 -.00000434  00000-0 -18445-5 0  9993,2 55311  70.0006  12.2935 0003352 276.7954 291.6852 15.69909398  3673,6737.293,91.725,361.417,356.9,0.0
55311.0,STARLINK-5312,PAYLOAD,2023-02-08 22:00:00,15.69942888,0.0003297,70.0008,11.591,272.0798,268.8707,3.2575e-05,3.709e-05,0.0,0 STARLINK-5312,1 55311U 23010AU  23039.91667824  .00003709  00000-0  32575-4 0  9996,2 55311  70.0008  11.5910 0003297 272.0798 268.8707 15.69942888  1307,6737.197,91.723,361.284,356.841,0.0
55311.0,STARLINK-5312,PAYLOAD,2023-02-09 08:00:01,15.69900012,0.0003395,70.0003,10.4193,280.0976,95.0655,0.00032592,0.0003912,0.0,0 STARLINK-5312,1 55311U 23010AU  23040.33334491  .00039120  00000-0  32592-3 0  9999,2 55311  70.0003  10.4193 0003395 280.0976  95.0655 15.69900012  3777,6737.32,91.726,361.472,356.898,0.0
55311.0,STARLINK-5312,PAYLOAD,2023-02-09 12:00:00,15.6995772,0.000334,70.0,9.9507,276.1922,320.6201,-0.00077926,-0.00093011,0.0,0 STARLINK-5312,1 55311U 23010AU  23040.50001157 -.00093011  00000-0 -77926-3 0  9999,2 55311  70.0000   9.9507 0003340 276.1922 320.6201 15.69957720  1302,6737.155,91.722,361.27,356.77,0.0
55311.0,STARLINK-5312,PAYLOAD,2023-02-09 22:00:00,15.69937666,0.0003378,70.0005,8.7792,266.3004,164.6638,-0.00010984,-0.00013406,0.0,0 STARLINK-5312,1 55311U 23010AU  23040.91667824 -.00013406  00000-0 -10984-3 0  9994,2 55311  70.0005   8.7792 0003378 266.3004 164.6638 15.69937666  3863,6737.212,91.723,361.353,356.802,0.0
55311.0,STARLINK-5312,PAYLOAD,2023-02-10 04:00:00,15.69940902,0.0003389,70.0006,8.0763,268.3567,135.1272,-0.00028005,-0.00033775,0.0,0 STARLINK-5312,1 55311U 23010AU  23041.16667824 -.00033775  00000-0 -28005-3 0  9996,2 55311  70.0006   8.0763 0003389 268.3567 135.1272 15.69940902  1304,6737.203,91.723,361.351,356.785,0.0
55311.0,STARLINK-5312,PAYLOAD,2023-02-10 22:00:00,15.69901283,0.0003464,70.0008,5.9681,251.9883,68.9696,0.0005406,0.00065236,0.0,0 STARLINK-5312,1 55311U 23010AU  23041.91667824  .00065236  00000-0  54060-3 0  9994,2 55311  70.0008   5.9681 0003464 251.9883  68.9696 15.69901283  1306,6737.316,91.726,361.515,356.848,0.0
55311.0,STARLINK-5312,PAYLOAD,2023-02-11 04:16:59,15.69932041,0.0003733,70.0006,5.2324,259.9122,100.1653,0.0002598,0.00031154,0.0,0 STARLINK-5312,1 55311U 23010AU  23042.17846811  .00031154  00000-0  25980-3 0  9999,2 55311  70.0006   5.2324 0003733 259.9122 100.1653 15.69932041  4068,6737.228,91.724,361.608,356.578,0.0
55311.0,STARLINK-5312,PAYLOAD,2023-02-11 08:52:14,15.69955461,0.0003299,70.0008,4.6959,250.1668,109.9172,0.00049008,0.00059208,0.0,0 STARLINK-5312,1 55311U 23010AU  23042.36961605  .00059208  00000-0  49008-3 0  9996,2 55311  70.0008   4.6959 0003299 250.1668 109.9172 15.69955461  4099,6737.161,91.722,361.249,356.804,0.0
55311.0,STARLINK-5312,PAYLOAD,2023-02-12 00:09:46,15.69929859,0.0003888,70.0005,2.9028,247.2443,112.8342,0.00011482,0.0001362,0.0,0 STARLINK-5312,1 55311U 23010AU  23043.00678451  .00013620  00000-0  11482-3 0  9995,2 55311  70.0005   2.9028 0003888 247.2443 112.8342 15.69929859  4191,6737.235,91.724,361.719,356.48,0.0
55311.0,STARLINK-5312,PAYLOAD,2023-02-13 06:44:48,15.69942981,0.000387,70.0018,359.3215,265.3584,94.7169,0.00010211,0.00012093,0.0,0 STARLINK-5312,1 55311U 23010AU  23044.28111526  .00012093  00000-0  10211-3 0  9993,2 55311  70.0018 359.3215 0003870 265.3584  94.7169 15.69942981  4398,6737.197,91.723,361.669,356.455,0.0
55311.0,STARLINK-5312,PAYLOAD,2023-02-13 08:16:15,15.7102308,0.0006205,70.0015,359.141,280.7841,79.2656,0.0053927,0.00741919,0.0,0 STARLINK-5312,1 55311U 23010AU  23044.34461848  .00741919  00000-0  53927-2 0  9991,2 55311  70.0015 359.1410 0006205 280.7841  79.2656 15.71023080  4406,6734.109,91.66,360.152,351.795,0.0
55311.0,STARLINK-5312,PAYLOAD,2023-02-14 06:00:02,15.69916763,0.0003426,70.0001,356.5956,268.8278,165.5662,0.00015622,0.00018607,0.0,0 STARLINK-5312,1 55311U 23010AU  23045.25002315  .00018607  00000-0  15622-3 0  9994,2 55311  70.0001 356.5956 0003426 268.8278 165.5662 15.69916763  4547,6737.272,91.725,361.445,356.829,0.0
55311.0,STARLINK-5312,PAYLOAD,2023-02-14 13:19:50,15.69949917,0.0003327,70.0004,355.7377,266.0293,94.0522,0.00017236,0.00020585,0.0,0 STARLINK-5312,1 55311U 23010AU  23045.55545121  .00020585  00000-0  17236-3 0  9995,2 55311  70.0004 355.7377 0003327 266.0293  94.0522 15.69949917  5780,6737.177,91.723,361.284,356.801,0.0
55311.0,STARLINK-5312,PAYLOAD,2023-02-15 06:09:07,15.69915405,0.0003358,69.9999,353.7676,265.6995,94.3817,-7.349e-05,-9.037e-05,0.0,0 STARLINK-5312,1 55311U 23010AU  23046.25634122 -.00009037  00000-0 -73490-4 0  9999,2 55311  69.9999 353.7676 0003358 265.6995  94.3817 15.69915405  4704,6737.276,91.725,361.403,356.879,0.0
55311.0,STARLINK-5312,PAYLOAD,2023-02-15 13:47:52,15.69946679,0.0003494,69.9998,352.8706,264.488,95.5917,0.00013246,0.00015759,0.0,0 STARLINK-5312,1 55311U 23010AU  23046.57491693  .00015759  00000-0  13246-3 0  9996,2 55311  69.9998 352.8706 0003494 264.4880  95.5917 15.69946679  4754,6737.187,91.723,361.406,356.698,0.0
55311.0,STARLINK-5312,PAYLOAD,2023-02-15 21:26:38,15.6994636,0.0003339,70.0002,351.9756,259.9278,100.1541,8.7634e-05,0.00010347,0.0,0 STARLINK-5312,1 55311U 23010AU  23046.89349698  .00010347  00000-0  87634-4 0  9999,2 55311  70.0002 351.9756 0003339 259.9278 100.1541 15.69946360  5996,6737.187,91.723,361.302,356.803,0.0
